start=new Date('2022-01-27T00:00:00.000Z').valueOf();
sats=[{"RA_OF_ASC_NODE":"89.5156","CENTER_NAME":"EARTH","MEAN_MOTION_DDOT":"0.0000000000000","OBJECT_NAME":"STARLINK-2508","LAUNCH_DATE":"2021-05-09","FILE":"3284266","MEAN_MOTION":"15.06403903","TIME_SYSTEM":"UTC","REF_FRAME":"TEME","DECAY_DATE":null,"MEAN_ELEMENT_THEORY":"SGP4","GP_ID":"194679978","ELEMENT_SET_NO":"999","CLASSIFICATION_TYPE":"U","COUNTRY_CODE":"US","MEAN_MOTION_DOT":"0.00000916","OBJECT_ID":"2021-040AE","REV_AT_EPOCH":"4006","EPOCH":"2022-01-26T12:58:32.003616","PERIOD":"95.592","BSTAR":"0.00008035500000","OBJECT_TYPE":"PAYLOAD","ECCENTRICITY":"0.00016640","TLE_LINE2":"2 48456  53.0558  89.5156 0001664  66.6570 293.4594 15.06403903 40063","ARG_OF_PERICENTER":"66.6570","APOAPSIS":"548.354","INCLINATION":"53.0558","SITE":"AFETR","TLE_LINE1":"1 48456U 21040AE  22026.54064819  .00000916  00000-0  80355-4 0  9994","RCS_SIZE":"LARGE","EPHEMERIS_TYPE":"0","SEMIMAJOR_AXIS":"6925.337","MEAN_ANOMALY":"293.4594","PERIAPSIS":"546.049","NORAD_CAT_ID":"48456"},{"TLE_LINE1":"1 48458U 21040AG  22026.54478113  .00001136  00000-0  95148-4 0  9993","RCS_SIZE":"LARGE","ARG_OF_PERICENTER":"79.2904","INCLINATION":"53.0567","SITE":"AFETR","APOAPSIS":"548.119","TLE_LINE2":"2 48458  53.0567  94.5002 0001325  79.2904 280.8234 15.06403988 40543","ECCENTRICITY":"0.00013250","NORAD_CAT_ID":"48458","PERIAPSIS":"546.284","MEAN_ANOMALY":"280.8234","SEMIMAJOR_AXIS":"6925.336","EPHEMERIS_TYPE":"0","MEAN_ELEMENT_THEORY":"SGP4","GP_ID":"194687339","REF_FRAME":"TEME","DECAY_DATE":null,"LAUNCH_DATE":"2021-05-09","MEAN_MOTION":"15.06403988","FILE":"3284458","TIME_SYSTEM":"UTC","CENTER_NAME":"EARTH","RA_OF_ASC_NODE":"94.5002","OBJECT_NAME":"STARLINK-2698","MEAN_MOTION_DDOT":"0.0000000000000","OBJECT_TYPE":"PAYLOAD","BSTAR":"0.00009514800000","PERIOD":"95.592","EPOCH":"2022-01-26T13:04:29.089632","REV_AT_EPOCH":"4054","MEAN_MOTION_DOT":"0.00001136","COUNTRY_CODE":"US","OBJECT_ID":"2021-040AG","ELEMENT_SET_NO":"999","CLASSIFICATION_TYPE":"U"},{"OBJECT_ID":"2021-040AH","COUNTRY_CODE":"US","MEAN_MOTION_DOT":"0.00000063","CLASSIFICATION_TYPE":"U","ELEMENT_SET_NO":"999","OBJECT_TYPE":"PAYLOAD","BSTAR":"0.00002310400000","PERIOD":"95.592","EPOCH":"2022-01-26T12:16:43.301856","REV_AT_EPOCH":"4000","MEAN_MOTION":"15.06404128","FILE":"3284266","TIME_SYSTEM":"UTC","LAUNCH_DATE":"2021-05-09","MEAN_MOTION_DDOT":"0.0000000000000","OBJECT_NAME":"STARLINK-2579","CENTER_NAME":"EARTH","RA_OF_ASC_NODE":"94.6498","GP_ID":"194680980","MEAN_ELEMENT_THEORY":"SGP4","DECAY_DATE":null,"REF_FRAME":"TEME","PERIAPSIS":"546.168","MEAN_ANOMALY":"285.7480","SEMIMAJOR_AXIS":"6925.336","EPHEMERIS_TYPE":"0","NORAD_CAT_ID":"48459","SITE":"AFETR","INCLINATION":"53.0553","APOAPSIS":"548.234","ARG_OF_PERICENTER":"74.3674","TLE_LINE2":"2 48459  53.0553  94.6498 0001492  74.3674 285.7480 15.06404128 40009","ECCENTRICITY":"0.00014920","RCS_SIZE":"LARGE","TLE_LINE1":"1 48459U 21040AH  22026.51161229  .00000063  00000-0  23104-4 0  9999"},{"ELEMENT_SET_NO":"999","CLASSIFICATION_TYPE":"U","MEAN_MOTION_DOT":"0.00001126","COUNTRY_CODE":"US","OBJECT_ID":"2021-040AJ","REV_AT_EPOCH":"4049","PERIOD":"95.592","EPOCH":"2022-01-26T10:21:18.442944","OBJECT_TYPE":"PAYLOAD","BSTAR":"0.00009445700000","RA_OF_ASC_NODE":"95.0062","CENTER_NAME":"EARTH","MEAN_MOTION_DDOT":"0.0000000000000","OBJECT_NAME":"STARLINK-2582","LAUNCH_DATE":"2021-05-09","MEAN_MOTION":"15.06402962","FILE":"3284266","TIME_SYSTEM":"UTC","REF_FRAME":"TEME","DECAY_DATE":null,"MEAN_ELEMENT_THEORY":"SGP4","GP_ID":"194681230","EPHEMERIS_TYPE":"0","SEMIMAJOR_AXIS":"6925.339","MEAN_ANOMALY":"292.8892","PERIAPSIS":"546.281","NORAD_CAT_ID":"48460","ECCENTRICITY":"0.00013330","TLE_LINE2":"2 48460  53.0557  95.0062 0001333  67.2238 292.8892 15.06402962 40491","ARG_OF_PERICENTER":"67.2238","APOAPSIS":"548.128","SITE":"AFETR","INCLINATION":"53.0557","TLE_LINE1":"1 48460U 21040AJ  22026.43146346  .00001126  00000-0  94457-4 0  9995","RCS_SIZE":"LARGE"},{"FILE":"3284266","MEAN_MOTION":"15.06412044","TIME_SYSTEM":"UTC","LAUNCH_DATE":"2021-05-09","MEAN_MOTION_DDOT":"0.0000000000000","OBJECT_NAME":"STARLINK-2693","RA_OF_ASC_NODE":"94.9336","CENTER_NAME":"EARTH","GP_ID":"194679479","MEAN_ELEMENT_THEORY":"SGP4","REF_FRAME":"TEME","DECAY_DATE":null,"OBJECT_ID":"2021-040AK","COUNTRY_CODE":"US","MEAN_MOTION_DOT":"0.00002645","CLASSIFICATION_TYPE":"U","ELEMENT_SET_NO":"999","BSTAR":"0.00019636000000","OBJECT_TYPE":"PAYLOAD","REV_AT_EPOCH":"3999","EPOCH":"2022-01-26T10:42:31.008672","PERIOD":"95.591","APOAPSIS":"548.249","INCLINATION":"53.0548","SITE":"AFETR","ARG_OF_PERICENTER":"60.3072","ECCENTRICITY":"0.00015490","TLE_LINE2":"2 48461  53.0548  94.9336 0001549  60.3072 299.8071 15.06412044 39994","RCS_SIZE":"LARGE","TLE_LINE1":"1 48461U 21040AK  22026.44619223  .00002645  00000-0  19636-3 0  9998","PERIAPSIS":"546.104","EPHEMERIS_TYPE":"0","SEMIMAJOR_AXIS":"6925.312","MEAN_ANOMALY":"299.8071","NORAD_CAT_ID":"48461"},{"OBJECT_TYPE":"PAYLOAD","BSTAR":"0.00011818000000","REV_AT_EPOCH":"3992","EPOCH":"2022-01-26T11:15:00.434592","PERIOD":"95.591","COUNTRY_CODE":"US","MEAN_MOTION_DOT":"0.00001480","OBJECT_ID":"2021-040AL","CLASSIFICATION_TYPE":"U","ELEMENT_SET_NO":"999","MEAN_ELEMENT_THEORY":"SGP4","GP_ID":"194680229","REF_FRAME":"TEME","DECAY_DATE":null,"LAUNCH_DATE":"2021-05-09","MEAN_MOTION":"15.06412386","FILE":"3284266","TIME_SYSTEM":"UTC","RA_OF_ASC_NODE":"99.8287","CENTER_NAME":"EARTH","OBJECT_NAME":"STARLINK-2683","MEAN_MOTION_DDOT":"0.0000000000000","NORAD_CAT_ID":"48462","PERIAPSIS":"546.285","SEMIMAJOR_AXIS":"6925.311","EPHEMERIS_TYPE":"0","MEAN_ANOMALY":"289.2133","TLE_LINE1":"1 48462U 21040AL  22026.46875503  .00001480  00000-0  11818-3 0  9996","RCS_SIZE":"LARGE","ARG_OF_PERICENTER":"70.8995","APOAPSIS":"548.066","SITE":"AFETR","INCLINATION":"53.0537","ECCENTRICITY":"0.00012860","TLE_LINE2":"2 48462  53.0537  99.8287 0001286  70.8995 289.2133 15.06412386 39924"},{"PERIAPSIS":"546.281","EPHEMERIS_TYPE":"0","SEMIMAJOR_AXIS":"6925.321","MEAN_ANOMALY":"289.3008","NORAD_CAT_ID":"48463","ARG_OF_PERICENTER":"70.8122","APOAPSIS":"548.091","INCLINATION":"53.0559","SITE":"AFETR","ECCENTRICITY":"0.00013070","TLE_LINE2":"2 48463  53.0559  99.4038 0001307  70.8122 289.3008 15.06408991 39946","TLE_LINE1":"1 48463U 21040AM  22026.56827305  .00002608  00000-0  19388-3 0  9998","RCS_SIZE":"LARGE","COUNTRY_CODE":"US","MEAN_MOTION_DOT":"0.00002608","OBJECT_ID":"2021-040AM","CLASSIFICATION_TYPE":"U","ELEMENT_SET_NO":"999","OBJECT_TYPE":"PAYLOAD","BSTAR":"0.00019388000000","REV_AT_EPOCH":"3994","EPOCH":"2022-01-26T13:38:18.791520","PERIOD":"95.592","LAUNCH_DATE":"2021-05-09","FILE":"3284266","MEAN_MOTION":"15.06408991","TIME_SYSTEM":"UTC","RA_OF_ASC_NODE":"99.4038","CENTER_NAME":"EARTH","MEAN_MOTION_DDOT":"0.0000000000000","OBJECT_NAME":"STARLINK-2689","MEAN_ELEMENT_THEORY":"SGP4","GP_ID":"194680481","REF_FRAME":"TEME","DECAY_DATE":null},{"REF_FRAME":"TEME","DECAY_DATE":null,"MEAN_ELEMENT_THEORY":"SGP4","GP_ID":"194687827","RA_OF_ASC_NODE":"98.9005","CENTER_NAME":"EARTH","MEAN_MOTION_DDOT":"0.0000000000000","OBJECT_NAME":"STARLINK-2686","LAUNCH_DATE":"2021-05-09","TIME_SYSTEM":"UTC","FILE":"3284458","MEAN_MOTION":"15.06403387","REV_AT_EPOCH":"4123","EPOCH":"2022-01-26T16:18:54.352800","PERIOD":"95.592","BSTAR":"0.00032821000000","OBJECT_TYPE":"PAYLOAD","CLASSIFICATION_TYPE":"U","ELEMENT_SET_NO":"999","MEAN_MOTION_DOT":"0.00004611","COUNTRY_CODE":"US","OBJECT_ID":"2021-040AN","TLE_LINE1":"1 48464U 21040AN  22026.67979575  .00004611  00000-0  32821-3 0  9991","RCS_SIZE":"LARGE","ECCENTRICITY":"0.00015470","TLE_LINE2":"2 48464  53.0552  98.9005 0001547  70.6956 289.4200 15.06403387 41231","ARG_OF_PERICENTER":"70.6956","APOAPSIS":"548.275","SITE":"AFETR","INCLINATION":"53.0552","NORAD_CAT_ID":"48464","SEMIMAJOR_AXIS":"6925.338","EPHEMERIS_TYPE":"0","MEAN_ANOMALY":"289.4200","PERIAPSIS":"546.132"},{"TLE_LINE1":"1 48465U 21040AP  22026.49182099  .00000860  00000-0  76636-4 0  9994","RCS_SIZE":"LARGE","ECCENTRICITY":"0.00013920","TLE_LINE2":"2 48465  53.0571  99.7398 0001392  79.9034 280.2112 15.06391456 39932","ARG_OF_PERICENTER":"79.9034","APOAPSIS":"548.204","INCLINATION":"53.0571","SITE":"AFETR","NORAD_CAT_ID":"48465","SEMIMAJOR_AXIS":"6925.375","EPHEMERIS_TYPE":"0","MEAN_ANOMALY":"280.2112","PERIAPSIS":"546.276","REF_FRAME":"TEME","DECAY_DATE":null,"MEAN_ELEMENT_THEORY":"SGP4","GP_ID":"194679979","RA_OF_ASC_NODE":"99.7398","CENTER_NAME":"EARTH","MEAN_MOTION_DDOT":"0.0000000000000","OBJECT_NAME":"STARLINK-2681","LAUNCH_DATE":"2021-05-09","FILE":"3284266","TIME_SYSTEM":"UTC","MEAN_MOTION":"15.06391456","REV_AT_EPOCH":"3993","EPOCH":"2022-01-26T11:48:13.333536","PERIOD":"95.593","BSTAR":"0.00007663600000","OBJECT_TYPE":"PAYLOAD","ELEMENT_SET_NO":"999","CLASSIFICATION_TYPE":"U","MEAN_MOTION_DOT":"0.00000860","COUNTRY_CODE":"US","OBJECT_ID":"2021-040AP"},{"MEAN_ANOMALY":"292.0144","SEMIMAJOR_AXIS":"6925.371","EPHEMERIS_TYPE":"0","PERIAPSIS":"546.283","NORAD_CAT_ID":"48466","TLE_LINE2":"2 48466  53.0555  99.5088 0001376  68.0991 292.0144 15.06392640 39945","ECCENTRICITY":"0.00013760","ARG_OF_PERICENTER":"68.0991","SITE":"AFETR","INCLINATION":"53.0555","APOAPSIS":"548.189","TLE_LINE1":"1 48466U 21040AQ  22026.54342698 -.00000229  00000-0  35101-5 0  9997","RCS_SIZE":"LARGE","ELEMENT_SET_NO":"999","CLASSIFICATION_TYPE":"U","COUNTRY_CODE":"US","MEAN_MOTION_DOT":"-0.00000229","OBJECT_ID":"2021-040AQ","PERIOD":"95.593","EPOCH":"2022-01-26T13:02:32.091072","REV_AT_EPOCH":"3994","BSTAR":"0.00000351010000","OBJECT_TYPE":"PAYLOAD","CENTER_NAME":"EARTH","RA_OF_ASC_NODE":"99.5088","MEAN_MOTION_DDOT":"0.0000000000000","OBJECT_NAME":"STARLINK-2687","LAUNCH_DATE":"2021-05-09","FILE":"3284266","MEAN_MOTION":"15.06392640","TIME_SYSTEM":"UTC","DECAY_DATE":null,"REF_FRAME":"TEME","MEAN_ELEMENT_THEORY":"SGP4","GP_ID":"194679730"}];
